TIROS N [P]             
1 11060U 78096A   09188.45667058  .00000000  00000-0  22402-4 0  2295
2 11060  98.9318 159.0658 0010534 323.3112  36.7338 14.17479152801820
NOAA 1 [-]              
1 04793U 70106A   09189.15199080 -.00000031  00000-0  10000-3 0  2012
2 04793 102.0766 180.2356 0032268  37.3500 322.9807 12.53929716765544
NOAA 2 [-]              
1 06235U 72082A   09188.03630182 -.00000027  00000-0  10000-3 0  3071
2 06235 101.4020 205.1607 0003303 245.1440 114.9290 12.53003175679955
NOAA 3 [-]              
1 06920U 73086A   09188.01833971 -.00000030  00000-0  10000-3 0  2024
2 06920 101.7250 209.5976 0006608 132.2761 227.8867 12.40297971614738
NOAA 4 [-]              
1 07529U 74089A   09189.08689604 -.00000027  00000-0  10000-3 0  2031
2 07529 101.4398 213.0541 0008736 276.5551  83.4528 12.53052917584666
NOAA 5 [-]              
1 09057U 76077A   09189.22727575 -.00000031  00000-0  10000-3 0   789
2 09057 101.9180 230.9611 0009461 312.0787  47.9468 12.37836972489088
NOAA 6 [P]              
1 11416U 79057A   09188.73177481  .00000027  00000-0  25852-4 0  8911
2 11416  98.4081 203.0199 0009967 196.2880 163.7985 14.31924215564651
NOAA 7 [-]              
1 12553U 81059A   09188.91208466 -.00000007  00000-0  17794-4 0    82
2 12553  98.6553 142.0410 0010778 258.7707 101.2255 14.16765777448468
NOAA 8 [-]              
1 13923U 83022A   09188.11579348 -.00000016  00000-0  10942-4 0  9029
2 13923  98.5585 217.5874 0016486  51.8632 308.4040 14.27706197367698
NOAA 9 [P]              
1 15427U 84123A   09188.43705059 -.00000145  00000-0 -53523-4 0  7381
2 15427  98.4413 185.0776 0014881   4.8026 355.3292 14.15322950267822
NOAA 10 [-]             
1 16969U 86073A   09188.20514108 -.00000075  00000-0 -12503-4 0  6763
2 16969  98.6900 214.7432 0012823 135.3930 224.8285 14.27389415186367
NOAA 11 [-]             
1 19531U 88089A   09188.29073553  .00000198  00000-0  12509-3 0  6942
2 19531  98.7859 277.9345 0012183  54.4372 305.7924 14.14899293 72362
NOAA 12 [B]             
1 21263U 91032A   09188.53161098  .00000009  00000-0  22813-4 0  1809
2 21263  98.7696 196.6004 0013584  87.0441 273.2288 14.25584451943290
NOAA 13 [-]             
1 22739U 93050A   09189.24097822 -.00000025  00000-0  10540-4 0  7575
2 22739  98.8697 269.1393 0009997 137.4317 222.7624 14.12220996819936
NOAA 14 [-]             
1 23455U 94089A   09188.41166219  .00000259  00000-0  16036-3 0  6807
2 23455  98.9089 266.0203 0010276 131.1040 229.1042 14.13765683748787
NOAA 15 [+]             
1 25338U 98030A   09188.27824641  .00000220  00000-0  11277-3 0  9963
2 25338  98.5837 177.0446 0010695   5.8680 354.2631 14.24771970579636
NOAA 16 [+]             
1 26536U 00055A   09188.26764491  .00000263  00000-0  16767-3 0  4735
2 26536  99.1751 192.4190 0009935 221.0482 138.9943 14.12526452453132
NOAA 17 [+]             
1 27453U 02032A   09188.37630502 -.00000046  00000-0 -16023-5 0  4769
2 27453  98.4825 246.7499 0012690  67.8950 292.3576 14.24074388365620
NOAA 18 [+]             
1 28654U 05018A   09188.39472881  .00000344  00000-0  21477-3 0  9677
2 28654  98.9066 131.4782 0013591 308.9215  51.0733 14.11270035212804
NOAA 19 [S]             
1 33591U 09005A   09188.45002699 -.00000091  00000-0 -26599-4 0  1692
2 33591  98.7456 133.6848 0013903 181.8736 178.2377 14.10969253 21294
